[
    {
        "Altitude(m)": 610399.5137957331,
        "Argument of Periapsis(deg)": 0.0,
        "Eccentricity": 0.0,
        "Inclination(deg)": 60.0,
        "Latitude(deg)": 52.11129344575006,
        "Longitude(deg)": -132.41560629316783,
        "Mean Anomaly(deg)": 65.45449999999998,
        "RAAN(deg)": 280.0,
        "Satellite Name": "Test1 1236",
        "Satellite Number": 1236,
        "Semi-Major Axis(m)": 6980739.136638005,
        "Time(s)": 0
    },
    {
        "Altitude(m)": 610481.6645930817,
        "Argument of Periapsis(deg)": 0.00010418945913296404,
        "Eccentricity": 0.0,
        "Inclination(deg)": 60.0,
        "Latitude(deg)": 52.47089476864972,
        "Longitude(deg)": -131.63346966828027,
        "Mean Anomaly(deg)": 66.07460614546183,
        "RAAN(deg)": 279.99957995086027,
        "Satellite Name": "Test1 1236",
        "Satellite Number": 1236,
        "Semi-Major Axis(m)": 6980739.136638005,
        "Time(s)": 10
    }
]